[{"OBJECT_NAME":"STARLINK-5757","OBJECT_ID":"2023-020M","EPOCH":"2026-03-09T22:00:01.999584","MEAN_MOTION":15.08369325,"ECCENTRICITY":0.00014936,"INCLINATION":42.9989,"RA_OF_ASC_NODE":337.1985,"ARG_OF_PERICENTER":308.378,"MEAN_ANOMALY":134.9479,"EPHEMERIS_TYPE":0,"CLASSIFICATION_TYPE":"U","NORAD_CAT_ID":55580,"ELEMENT_SET_NO":999,"REV_AT_EPOCH":573,"BSTAR":0.0028831401,"MEAN_MOTION_DOT":0.00045651,"MEAN_MOTION_DDOT":0},{"OBJECT_NAME":"FENGYUN 1C DEB","OBJECT_ID":"1999-025DHR","EPOCH":"2026-03-09T03:17:03.366528","MEAN_MOTION":14.93788576,"ECCENTRICITY":0.01441183,"INCLINATION":98.9629,"RA_OF_ASC_NODE":141.136,"ARG_OF_PERICENTER":297.5682,"MEAN_ANOMALY":61.0956,"EPHEMERIS_TYPE":0,"CLASSIFICATION_TYPE":"U","NORAD_CAT_ID":33728,"ELEMENT_SET_NO":999,"REV_AT_EPOCH":99589,"BSTAR":0.0005846723,"MEAN_MOTION_DOT":7.528e-5,"MEAN_MOTION_DDOT":0}]
